COMMENT,ORIGINATOR,NORAD_CAT_ID,OBJECT_NAME,OBJECT_TYPE,CLASSIFICATION_TYPE,INTLDES,EPOCH,EPOCH_MICROSECONDS,MEAN_MOTION,ECCENTRICITY,INCLINATION,RA_OF_ASC_NODE,ARG_OF_PERICENTER,MEAN_ANOMALY,EPHEMERIS_TYPE,ELEMENT_SET_NO,REV_AT_EPOCH,BSTAR,MEAN_MOTION_DOT,MEAN_MOTION_DDOT,FILE,TLE_LINE0,TLE_LINE1,TLE_LINE2,OBJECT_ID,OBJECT_NUMBER,SEMIMAJOR_AXIS,PERIOD,APOGEE,PERIGEE,DECAYED
GENERATED VIA SPACETRACK.ORG API,18 SPCS,50803,STARLINK-3321,PAYLOAD,U,22001A,2024-07-30 12:04:10,155648,15.08831703,0.0001448,53.2176,285.1091,101.3051,258.8103,0,999,14303,9.1952e-05,1.175e-05,0.0,4406592,0 STARLINK-3321,1 50803U 22001A   24212.50289532  .00001175  00000-0  91952-4 0  9990,2 50803  53.2176 285.1091 0001448 101.3051 258.8103 15.08831703143030,2022-001A,50803,6917.906,95.438,540.772,538.769,1
GENERATED VIA SPACETRACK.ORG API,18 SPCS,50803,STARLINK-3321,PAYLOAD,U,22001A,2024-07-30 21:36:28,982880,15.08834917,0.0001222,53.2155,283.3154,66.8803,293.2318,0,999,14182,3.2698e-05,2.33e-06,0.0,4407788,0 STARLINK-3321,1 50803U 22001A   24212.90033545  .00000233  00000-0  32698-4 0  9991,2 50803  53.2155 283.3154 0001222  66.8803 293.2318 15.08834917141823,2022-001A,50803,6917.896,95.438,540.606,538.916,1
GENERATED VIA SPACETRACK.ORG API,18 SPCS,50803,STARLINK-3321,PAYLOAD,U,22001A,2024-07-31 11:54:57,892896,15.08833524,0.0001559,53.2178,280.6412,72.6025,287.5137,0,999,14191,-3.1141e-05,-7.83e-06,0.0,4408741,0 STARLINK-3321,1 50803U 22001A   24213.49650339 -.00000783  00000-0 -31141-4 0  9996,2 50803  53.2178 280.6412 0001559  72.6025 287.5137 15.08833524141917,2022-001A,50803,6917.9,95.438,540.844,538.687,1
GENERATED VIA SPACETRACK.ORG API,18 SPCS,50803,STARLINK-3321,PAYLOAD,U,22001A,2024-07-31 15:05:44,98368,15.08835155,0.0001523,53.2179,280.0461,70.9517,289.164,0,999,14320,-2.3804e-05,-6.67e-06,0.0,4408835,0 STARLINK-3321,1 50803U 22001A   24213.62898262 -.00000667  00000-0 -23804-4 0  9998,2 50803  53.2179 280.0461 0001523  70.9517 289.1640 15.08835155143207,2022-001A,50803,6917.895,95.438,540.814,538.707,1
GENERATED VIA SPACETRACK.ORG API,18 SPCS,50803,STARLINK-3321,PAYLOAD,U,22001A,2024-07-31 15:05:44,98368,15.08835155,0.0001523,53.2179,280.0461,70.9517,289.164,0,999,14193,-2.3804e-05,-6.67e-06,0.0,4409202,0 STARLINK-3321,1 50803U 22001A   24213.62898262 -.00000667  00000-0 -23804-4 0  9998,2 50803  53.2179 280.0461 0001523  70.9517 289.1640 15.08835155141935,2022-001A,50803,6917.895,95.438,540.814,538.707,1
GENERATED VIA SPACETRACK.ORG API,18 SPCS,50803,STARLINK-3321,PAYLOAD,U,22001A,2024-08-01 10:10:20,521632,15.08850978,0.0001605,53.2178,276.4784,88.0628,272.0547,0,999,14332,0.00015554,2.189e-05,0.0,4409629,0 STARLINK-3321,1 50803U 22001A   24214.42384863  .00002189  00000-0  15554-3 0  9995,2 50803  53.2178 276.4784 0001605  88.0628 272.0547 15.08850978143327,2022-001A,50803,6917.847,95.437,540.822,538.602,1
GENERATED VIA SPACETRACK.ORG API,18 SPCS,50803,STARLINK-3321,PAYLOAD,U,22001A,2024-08-01 13:21:06,492096,15.08854395,0.0001681,53.2186,275.8835,83.4492,276.6691,0,999,14207,0.00022279,3.261e-05,0.0,4410117,0 STARLINK-3321,1 50803U 22001A   24214.55632514  .00003261  00000-0  22279-3 0  9992,2 50803  53.2186 275.8835 0001681  83.4492 276.6691 15.08854395142076,2022-001A,50803,6917.836,95.437,540.864,538.539,1
GENERATED VIA SPACETRACK.ORG API,18 SPCS,50803,STARLINK-3321,PAYLOAD,U,22001A,2024-08-01 21:18:03,50784,15.08841444,0.0001819,53.2158,274.394,74.9836,285.1357,0,999,14212,9.2814e-05,1.189e-05,0.0,4410768,0 STARLINK-3321,1 50803U 22001A   24214.88753531  .00001189  00000-0  92814-4 0  9991,2 50803  53.2158 274.3940 0001819  74.9836 285.1357 15.08841444142127,2022-001A,50803,6917.876,95.437,540.999,538.483,1
GENERATED VIA SPACETRACK.ORG API,18 SPCS,50803,STARLINK-3321,PAYLOAD,U,22001A,2024-08-01 21:18:03,50784,15.08841444,0.0001819,53.2158,274.394,74.9836,285.1357,0,999,14339,9.2814e-05,1.189e-05,0.0,4411181,0 STARLINK-3321,1 50803U 22001A   24214.88753531  .00001189  00000-0  92814-4 0  9991,2 50803  53.2158 274.3940 0001819  74.9836 285.1357 15.08841444143397,2022-001A,50803,6917.876,95.437,540.999,538.483,1
GENERATED VIA SPACETRACK.ORG API,18 SPCS,50803,STARLINK-3321,PAYLOAD,U,22001A,2024-08-02 11:36:31,312800,15.08843075,0.0001432,53.2167,271.721,85.2834,274.8321,0,999,14221,0.00010809,1.433e-05,0.0,4412141,0 STARLINK-3321,1 50803U 22001A   24215.48369575  .00001433  00000-0  10809-3 0  9994,2 50803  53.2167 271.7210 0001432  85.2834 274.8321 15.08843075142210,2022-001A,50803,6917.871,95.437,540.727,538.745,1
GENERATED VIA SPACETRACK.ORG API,18 SPCS,50803,STARLINK-3321,PAYLOAD,U,22001A,2024-08-02 21:08:50,121024,15.088444,0.0001431,53.2159,269.9389,78.8863,281.229,0,999,14227,5.5004e-05,5.88e-06,0.0,4412788,0 STARLINK-3321,1 50803U 22001A   24215.88113566  .00000588  00000-0  55004-4 0  9992,2 50803  53.2159 269.9389 0001431  78.8863 281.2290 15.08844400142272,2022-001A,50803,6917.867,95.437,540.722,538.742,1
GENERATED VIA SPACETRACK.ORG API,18 SPCS,50803,STARLINK-3321,PAYLOAD,U,22001A,2024-08-03 03:30:22,695264,15.08843746,0.0001477,53.2156,268.7503,82.6831,277.4329,0,999,14358,3.3447e-05,2.44e-06,0.0,4412844,0 STARLINK-3321,1 50803U 22001A   24216.14609601  .00000244  00000-0  33447-4 0  9998,2 50803  53.2156 268.7503 0001477  82.6831 277.4329 15.08843746143589,2022-001A,50803,6917.869,95.437,540.756,538.712,1
GENERATED VIA SPACETRACK.ORG API,18 SPCS,50803,STARLINK-3321,PAYLOAD,U,22001A,2024-08-03 09:51:54,858240,15.08853397,0.0001423,53.2163,267.5594,84.3041,275.8114,0,999,14235,-5.2256e-05,-1.12e-05,0.0,4414088,0 STARLINK-3321,1 50803U 22001A   24216.41105160 -.00001120  00000-0 -52256-4 0  9994,2 50803  53.2163 267.5594 0001423  84.3041 275.8114 15.08853397142358,2022-001A,50803,6917.839,95.437,540.689,538.72,1
GENERATED VIA SPACETRACK.ORG API,18 SPCS,50803,STARLINK-3321,PAYLOAD,U,22001A,2024-08-03 20:59:36,631392,15.08851819,0.0001426,53.2162,265.4779,84.0996,276.0159,0,999,14242,-5.1546e-05,-1.109e-05,0.0,4414737,0 STARLINK-3321,1 50803U 22001A   24216.87472953 -.00001109  00000-0 -51546-4 0  9999,2 50803  53.2162 265.4779 0001426  84.0996 276.0159 15.08851819142425,2022-001A,50803,6917.844,95.437,540.696,538.723,1
GENERATED VIA SPACETRACK.ORG API,18 SPCS,50803,STARLINK-3321,PAYLOAD,U,22001A,2024-08-04 12:53:27,941280,15.08844475,0.0001443,53.216,262.5031,87.6021,272.5136,0,999,14379,0.00019859,2.874e-05,0.0,4415463,0 STARLINK-3321,1 50803U 22001A   24217.53712895  .00002874  00000-0  19859-3 0  9993,2 50803  53.2160 262.5031 0001443  87.6021 272.5136 15.08844475143796,2022-001A,50803,6917.867,95.437,540.73,538.733,1
GENERATED VIA SPACETRACK.ORG API,18 SPCS,50803,STARLINK-3321,PAYLOAD,U,22001A,2024-08-05 09:33:28,788768,15.08844656,0.0001574,53.2161,258.6355,94.2843,265.8329,0,999,14392,8.8591e-05,1.122e-05,0.0,4417561,0 STARLINK-3321,1 50803U 22001A   24218.39824987  .00001122  00000-0  88591-4 0  9999,2 50803  53.2161 258.6355 0001574  94.2843 265.8329 15.08844656143928,2022-001A,50803,6917.866,95.437,540.82,538.642,1
GENERATED VIA SPACETRACK.ORG API,18 SPCS,50803,STARLINK-3321,PAYLOAD,U,22001A,2024-08-05 09:33:28,707552,15.08845761,0.0001557,53.2161,258.6355,93.2395,266.8776,0,999,14265,6.2181e-05,7.02e-06,0.0,4418857,0 STARLINK-3321,1 50803U 22001A   24218.39824893  .00000702  00000-0  62181-4 0  9995,2 50803  53.2161 258.6355 0001557  93.2395 266.8776 15.08845761142654,2022-001A,50803,6917.863,95.437,540.805,538.651,1
GENERATED VIA SPACETRACK.ORG API,18 SPCS,50803,STARLINK-3321,PAYLOAD,U,22001A,2024-08-06 06:13:31,9152,15.08828719,0.0001451,53.2165,254.7696,102.1043,258.0112,0,999,14405,-6.44e-05,-1.312e-05,0.0,4419760,0 STARLINK-3321,1 50803U 22001A   24219.25938668 -.00001312  00000-0 -64400-4 0  9993,2 50803  53.2165 254.7696 0001451 102.1043 258.0112 15.08828719144053,2022-001A,50803,6917.915,95.438,540.784,538.776,1
GENERATED VIA SPACETRACK.ORG API,18 SPCS,50803,STARLINK-3321,PAYLOAD,U,22001A,2024-08-06 06:13:31,9152,15.08828719,0.0001451,53.2165,254.7696,102.1043,258.0112,0,999,14278,-6.44e-05,-1.312e-05,0.0,4420137,0 STARLINK-3321,1 50803U 22001A   24219.25938668 -.00001312  00000-0 -64400-4 0  9993,2 50803  53.2165 254.7696 0001451 102.1043 258.0112 15.08828719142781,2022-001A,50803,6917.915,95.438,540.784,538.776,1
GENERATED VIA SPACETRACK.ORG API,18 SPCS,50803,STARLINK-3321,PAYLOAD,U,22001A,2024-08-06 18:56:35,920032,15.0883359,0.0001265,53.2158,252.3883,85.3418,274.7718,0,999,14413,-1.129e-06,-3.06e-06,0.0,4420361,0 STARLINK-3321,1 50803U 22001A   24219.78930463 -.00000306  00000-0 -11290-5 0  9998,2 50803  53.2158 252.3883 0001265  85.3418 274.7718 15.08833590144137,2022-001A,50803,6917.9,95.438,540.64,538.89,1
GENERATED VIA SPACETRACK.ORG API,18 SPCS,50803,STARLINK-3321,PAYLOAD,U,22001A,2024-08-06 18:56:35,920032,15.0883359,0.0001265,53.2158,252.3883,85.3418,274.7718,0,999,14286,-1.129e-06,-3.06e-06,0.0,4420814,0 STARLINK-3321,1 50803U 22001A   24219.78930463 -.00000306  00000-0 -11290-5 0  9998,2 50803  53.2158 252.3883 0001265  85.3418 274.7718 15.08833590142865,2022-001A,50803,6917.9,95.438,540.64,538.89,1
GENERATED VIA SPACETRACK.ORG API,18 SPCS,50803,STARLINK-3321,PAYLOAD,U,22001A,2024-08-07 12:25:49,770624,15.08847419,0.0001303,53.2159,249.1213,97.2175,262.8966,0,999,14424,8.1419e-05,1.008e-05,0.0,4421406,0 STARLINK-3321,1 50803U 22001A   24220.51793716  .00001008  00000-0  81419-4 0  9996,2 50803  53.2159 249.1213 0001303  97.2175 262.8966 15.08847419144244,2022-001A,50803,6917.858,95.437,540.624,538.821,1
GENERATED VIA SPACETRACK.ORG API,18 SPCS,50803,STARLINK-3321,PAYLOAD,U,22001A,2024-08-08 10:41:13,983936,15.08844812,0.0001335,53.2158,244.9578,99.4681,260.6462,0,999,14311,0.00025626,3.793e-05,0.0,4422592,0 STARLINK-3321,1 50803U 22001A   24221.44530074  .00003793  00000-0  25626-3 0  9995,2 50803  53.2158 244.9578 0001335  99.4681 260.6462 15.08844812143117,2022-001A,50803,6917.866,95.437,540.654,538.807,1
